[{"OBJECT_NAME":"ONEWEB-0407","OBJECT_ID":"2021-132U","EPOCH":"2026-04-27T03:03:19.656576","MEAN_MOTION":13.18588139,"ECCENTRICITY":0.0001936,"INCLINATION":87.9204,"RA_OF_ASC_NODE":345.6035,"ARG_OF_PERICENTER":79.6029,"MEAN_ANOMALY":280.5321,"EPHEMERIS_TYPE":0,"CLASSIFICATION_TYPE":"U","NORAD_CAT_ID":50487,"ELEMENT_SET_NO":999,"REV_AT_EPOCH":21483,"BSTAR":8.1432e-05,"MEAN_MOTION_DOT":4.5e-07,"MEAN_MOTION_DDOT":0.0},{"OBJECT_NAME":"ONEWEB-0409","OBJECT_ID":"2021-132V","EPOCH":"2026-04-27T05:03:48.909600","MEAN_MOTION":13.11417383,"ECCENTRICITY":0.0001608,"INCLINATION":87.8931,"RA_OF_ASC_NODE":31.1873,"ARG_OF_PERICENTER":84.7498,"MEAN_ANOMALY":275.3814,"EPHEMERIS_TYPE":0,"CLASSIFICATION_TYPE":"U","NORAD_CAT_ID":50488,"ELEMENT_SET_NO":999,"REV_AT_EPOCH":20890,"BSTAR":0.0018611,"MEAN_MOTION_DOT":6.72e-06,"MEAN_MOTION_DDOT":0.0},{"OBJECT_NAME":"ONEWEB-0412","OBJECT_ID":"2021-132W","EPOCH":"2026-04-27T04:35:46.512384","MEAN_MOTION":13.18625587,"ECCENTRICITY":0.000211,"INCLINATION":87.9198,"RA_OF_ASC_NODE":345.6008,"ARG_OF_PERICENTER":84.8707,"MEAN_ANOMALY":275.2666,"EPHEMERIS_TYPE":0,"CLASSIFICATION_TYPE":"U","NORAD_CAT_ID":50489,"ELEMENT_SET_NO":999,"REV_AT_EPOCH":21493,"BSTAR":-7.9263e-05,"MEAN_MOTION_DOT":-1.8e-07,"MEAN_MOTION_DDOT":0.0},{"OBJECT_NAME":"ONEWEB-0413","OBJECT_ID":"2021-132X","EPOCH":"2026-04-27T02:53:44.371680","MEAN_MOTION":13.18612718,"ECCENTRICITY":0.0002065,"INCLINATION":87.9195,"RA_OF_ASC_NODE":345.6171,"ARG_OF_PERICENTER":81.4793,"MEAN_ANOMALY":278.6573,"EPHEMERIS_TYPE":0,"CLASSIFICATION_TYPE":"U","NORAD_CAT_ID":50490,"ELEMENT_SET_NO":999,"REV_AT_EPOCH":21486,"BSTAR":0.00023688000000000002,"MEAN_MOTION_DOT":1.06e-06,"MEAN_MOTION_DDOT":0.0},{"OBJECT_NAME":"ONEWEB-0414","OBJECT_ID":"2021-132Y","EPOCH":"2026-04-27T04:21:21.723552","MEAN_MOTION":13.18658837,"ECCENTRICITY":0.0001932,"INCLINATION":87.9204,"RA_OF_ASC_NODE":345.5821,"ARG_OF_PERICENTER":87.2077,"MEAN_ANOMALY":272.9276,"EPHEMERIS_TYPE":0,"CLASSIFICATION_TYPE":"U","NORAD_CAT_ID":50491,"ELEMENT_SET_NO":999,"REV_AT_EPOCH":21490,"BSTAR":0.00013472,"MEAN_MOTION_DOT":6.6e-07,"MEAN_MOTION_DDOT":0.0},{"OBJECT_NAME":"ONEWEB-0417","OBJECT_ID":"2021-132Z","EPOCH":"2026-04-27T04:33:25.005600","MEAN_MOTION":13.18637635,"ECCENTRICITY":0.0001625,"INCLINATION":87.9197,"RA_OF_ASC_NODE":345.6041,"ARG_OF_PERICENTER":89.705,"MEAN_ANOMALY":270.4268,"EPHEMERIS_TYPE":0,"CLASSIFICATION_TYPE":"U","NORAD_CAT_ID":50492,"ELEMENT_SET_NO":999,"REV_AT_EPOCH":21488,"BSTAR":0.00036852,"MEAN_MOTION_DOT":1.58e-06,"MEAN_MOTION_DDOT":0.0},{"OBJECT_NAME":"ONEWEB-0418","OBJECT_ID":"2021-132AA","EPOCH":"2026-04-27T02:58:22.331712","MEAN_MOTION":13.18592779,"ECCENTRICITY":0.0001585,"INCLINATION":87.9208,"RA_OF_ASC_NODE":345.6119,"ARG_OF_PERICENTER":96.2628,"MEAN_ANOMALY":263.8685,"EPHEMERIS_TYPE":0,"CLASSIFICATION_TYPE":"U","NORAD_CAT_ID":50493,"ELEMENT_SET_NO":999,"REV_AT_EPOCH":21493,"BSTAR":0.0006296699999999999,"MEAN_MOTION_DOT":2.61e-06,"MEAN_MOTION_DDOT":0.0},{"OBJECT_NAME":"ONEWEB-0419","OBJECT_ID":"2021-132AB","EPOCH":"2026-04-27T01:35:03.549984","MEAN_MOTION":13.18666332,"ECCENTRICITY":0.0001495,"INCLINATION":87.9204,"RA_OF_ASC_NODE":345.6232,"ARG_OF_PERICENTER":84.3709,"MEAN_ANOMALY":275.7594,"EPHEMERIS_TYPE":0,"CLASSIFICATION_TYPE":"U","NORAD_CAT_ID":50494,"ELEMENT_SET_NO":999,"REV_AT_EPOCH":21484,"BSTAR":0.00021769,"MEAN_MOTION_DOT":9.9e-07,"MEAN_MOTION_DDOT":0.0},{"OBJECT_NAME":"ONEWEB-0420","OBJECT_ID":"2021-132AC","EPOCH":"2026-04-27T04:23:45.628800","MEAN_MOTION":13.18653112,"ECCENTRICITY":0.0001883,"INCLINATION":87.9197,"RA_OF_ASC_NODE":345.6077,"ARG_OF_PERICENTER":77.5667,"MEAN_ANOMALY":282.5676,"EPHEMERIS_TYPE":0,"CLASSIFICATION_TYPE":"U","NORAD_CAT_ID":50495,"ELEMENT_SET_NO":999,"REV_AT_EPOCH":21485,"BSTAR":0.00013997,"MEAN_MOTION_DOT":6.8e-07,"MEAN_MOTION_DDOT":0.0},{"OBJECT_NAME":"ONEWEB-0421","OBJECT_ID":"2021-132AD","EPOCH":"2026-04-27T04:14:09.360672","MEAN_MOTION":13.1867602,"ECCENTRICITY":0.0002118,"INCLINATION":87.9202,"RA_OF_ASC_NODE":345.6045,"ARG_OF_PERICENTER":90.5483,"MEAN_ANOMALY":269.5892,"EPHEMERIS_TYPE":0,"CLASSIFICATION_TYPE":"U","NORAD_CAT_ID":50496,"ELEMENT_SET_NO":999,"REV_AT_EPOCH":21489,"BSTAR":-0.0010715,"MEAN_MOTION_DOT":-4.09e-06,"MEAN_MOTION_DDOT":0.0},{"OBJECT_NAME":"ONEWEB-0424","OBJECT_ID":"2021-132AE","EPOCH":"2026-04-27T01:28:28.169760","MEAN_MOTION":13.18557658,"ECCENTRICITY":0.0001445,"INCLINATION":87.9206,"RA_OF_ASC_NODE":345.6229,"ARG_OF_PERICENTER":80.9185,"MEAN_ANOMALY":279.2111,"EPHEMERIS_TYPE":0,"CLASSIFICATION_TYPE":"U","NORAD_CAT_ID":50497,"ELEMENT_SET_NO":999,"REV_AT_EPOCH":21490,"BSTAR":-0.00089568,"MEAN_MOTION_DOT":-3.4e-06,"MEAN_MOTION_DDOT":0.0},{"OBJECT_NAME":"ONEWEB-0426","OBJECT_ID":"2021-132AF","EPOCH":"2026-04-27T04:09:16.165728","MEAN_MOTION":13.18691137,"ECCENTRICITY":0.0001981,"INCLINATION":87.9204,"RA_OF_ASC_NODE":345.5931,"ARG_OF_PERICENTER":104.8781,"MEAN_ANOMALY":255.257,"EPHEMERIS_TYPE":0,"CLASSIFICATION_TYPE":"U","NORAD_CAT_ID":50498,"ELEMENT_SET_NO":999,"REV_AT_EPOCH":21486,"BSTAR":0.00015371000000000002,"MEAN_MOTION_DOT":7.4e-07,"MEAN_MOTION_DDOT":0.0},{"OBJECT_NAME":"ONEWEB-0427","OBJECT_ID":"2021-132AG","EPOCH":"2026-04-27T01:26:03.400512","MEAN_MOTION":13.18566723,"ECCENTRICITY":0.0001654,"INCLINATION":87.9207,"RA_OF_ASC_NODE":345.6029,"ARG_OF_PERICENTER":90.8823,"MEAN_ANOMALY":269.2498,"EPHEMERIS_TYPE":0,"CLASSIFICATION_TYPE":"U","NORAD_CAT_ID":50499,"ELEMENT_SET_NO":999,"REV_AT_EPOCH":21487,"BSTAR":0.00022420000000000003,"MEAN_MOTION_DOT":1.01e-06,"MEAN_MOTION_DDOT":0.0},{"OBJECT_NAME":"ONEWEB-0429","OBJECT_ID":"2021-132AH","EPOCH":"2026-04-27T02:56:06.951552","MEAN_MOTION":13.18604409,"ECCENTRICITY":0.0001881,"INCLINATION":87.9198,"RA_OF_ASC_NODE":345.6188,"ARG_OF_PERICENTER":80.3667,"MEAN_ANOMALY":279.7678,"EPHEMERIS_TYPE":0,"CLASSIFICATION_TYPE":"U","NORAD_CAT_ID":50500,"ELEMENT_SET_NO":999,"REV_AT_EPOCH":21485,"BSTAR":0.00011144,"MEAN_MOTION_DOT":5.7e-07,"MEAN_MOTION_DDOT":0.0},{"OBJECT_NAME":"ONEWEB-0430","OBJECT_ID":"2021-132AJ","EPOCH":"2026-04-27T04:28:41.045952","MEAN_MOTION":13.18592711,"ECCENTRICITY":0.0002338,"INCLINATION":87.9198,"RA_OF_ASC_NODE":345.6044,"ARG_OF_PERICENTER":82.8749,"MEAN_ANOMALY":277.2649,"EPHEMERIS_TYPE":0,"CLASSIFICATION_TYPE":"U","NORAD_CAT_ID":50501,"ELEMENT_SET_NO":999,"REV_AT_EPOCH":21490,"BSTAR":-0.017048,"MEAN_MOTION_DOT":-6.694e-05,"MEAN_MOTION_DDOT":0.0},{"OBJECT_NAME":"ONEWEB-0432","OBJECT_ID":"2021-132AK","EPOCH":"2026-04-27T01:39:01.105920","MEAN_MOTION":13.18785145,"ECCENTRICITY":0.0001082,"INCLINATION":87.9203,"RA_OF_ASC_NODE":345.5985,"ARG_OF_PERICENTER":92.4346,"MEAN_ANOMALY":267.691,"EPHEMERIS_TYPE":0,"CLASSIFICATION_TYPE":"U","NORAD_CAT_ID":50502,"ELEMENT_SET_NO":999,"REV_AT_EPOCH":21484,"BSTAR":0.0001686,"MEAN_MOTION_DOT":7.9e-07,"MEAN_MOTION_DDOT":0.0}]