ONEWEB-0407             
1 50487U 21132U   26117.12731084  .00000045  00000+0  81432-4 0  9996
2 50487  87.9204 345.6035 0001936  79.6029 280.5321 13.18588139214830
ONEWEB-0409             
1 50488U 21132V   26117.21098275  .00000672  00000+0  18611-2 0  9998
2 50488  87.8931  31.1873 0001608  84.7498 275.3814 13.11417383208902
ONEWEB-0412             
1 50489U 21132W   26117.19151056 -.00000018  00000+0 -79263-4 0  9991
2 50489  87.9198 345.6008 0002110  84.8707 275.2666 13.18625587214933
ONEWEB-0413             
1 50490U 21132X   26117.12065245  .00000106  00000+0  23688-3 0  9995
2 50490  87.9195 345.6171 0002065  81.4793 278.6573 13.18612718214868
ONEWEB-0414             
1 50491U 21132Y   26117.18150143  .00000066  00000+0  13472-3 0  9999
2 50491  87.9204 345.5821 0001932  87.2077 272.9276 13.18658837214906
ONEWEB-0417             
1 50492U 21132Z   26117.18987275  .00000158  00000+0  36852-3 0  9993
2 50492  87.9197 345.6041 0001625  89.7050 270.4268 13.18637635214884
ONEWEB-0418             
1 50493U 21132AA  26117.12386958  .00000261  00000+0  62967-3 0  9990
2 50493  87.9208 345.6119 0001585  96.2628 263.8685 13.18592779214937
ONEWEB-0419             
1 50494U 21132AB  26117.06601331  .00000099  00000+0  21769-3 0  9993
2 50494  87.9204 345.6232 0001495  84.3709 275.7594 13.18666332214846
ONEWEB-0420             
1 50495U 21132AC  26117.18316700  .00000068  00000+0  13997-3 0  9990
2 50495  87.9197 345.6077 0001883  77.5667 282.5676 13.18653112214853
ONEWEB-0421             
1 50496U 21132AD  26117.17649723 -.00000409  00000+0 -10715-2 0  9999
2 50496  87.9202 345.6045 0002118  90.5483 269.5892 13.18676020214891
ONEWEB-0424             
1 50497U 21132AE  26117.06143715 -.00000340  00000+0 -89568-3 0  9995
2 50497  87.9206 345.6229 0001445  80.9185 279.2111 13.18557658214903
ONEWEB-0426             
1 50498U 21132AF  26117.17310377  .00000074  00000+0  15371-3 0  9991
2 50498  87.9204 345.5931 0001981 104.8781 255.2570 13.18691137214863
ONEWEB-0427             
1 50499U 21132AG  26117.05976158  .00000101  00000+0  22420-3 0  9998
2 50499  87.9207 345.6029 0001654  90.8823 269.2498 13.18566723214871
ONEWEB-0429             
1 50500U 21132AH  26117.12230268  .00000057  00000+0  11144-3 0  9995
2 50500  87.9198 345.6188 0001881  80.3667 279.7678 13.18604409214859
ONEWEB-0430             
1 50501U 21132AJ  26117.18658618 -.00006694  00000+0 -17048-1 0  9997
2 50501  87.9198 345.6044 0002338  82.8749 277.2649 13.18592711214906
ONEWEB-0432             
1 50502U 21132AK  26117.06876280  .00000079  00000+0  16860-3 0  9994
2 50502  87.9203 345.5985 0001082  92.4346 267.6910 13.18785145214844
